STARLINK-2022           
1 47643U 21012Z   24061.44402647  .00009831  00000+0  67765-3 0  9998
2 47643  53.0521 125.7329 0001511  86.5869 273.5293 15.06417323168997
